[{"OBJECT_NAME":"SPIP","OBJECT_ID":"2023-174AU","EPOCH":"2026-03-09T22:52:46.383168","MEAN_MOTION":15.26695413,"ECCENTRICITY":0.00100427,"INCLINATION":97.3901,"RA_OF_ASC_NODE":146.4534,"ARG_OF_PERICENTER":168.1112,"MEAN_ANOMALY":192.0366,"EPHEMERIS_TYPE":0,"CLASSIFICATION_TYPE":"U","NORAD_CAT_ID":58298,"ELEMENT_SET_NO":999,"REV_AT_EPOCH":12963,"BSTAR":0.00025731582,"MEAN_MOTION_DOT":6.692e-5,"MEAN_MOTION_DDOT":0},{"OBJECT_NAME":"STARLINK-34094","OBJECT_ID":"2025-092U","EPOCH":"2026-03-09T07:28:49.440576","MEAN_MOTION":15.27593229,"ECCENTRICITY":4.659e-5,"INCLINATION":42.9929,"RA_OF_ASC_NODE":171.4607,"ARG_OF_PERICENTER":162.5456,"MEAN_ANOMALY":197.5411,"EPHEMERIS_TYPE":0,"CLASSIFICATION_TYPE":"U","NORAD_CAT_ID":63822,"ELEMENT_SET_NO":999,"REV_AT_EPOCH":4864,"BSTAR":0.0012426135,"MEAN_MOTION_DOT":0.00034104,"MEAN_MOTION_DDOT":0}]
